STARLINK-1951
1 27553C 21009F   21325.13368365  .00532816  00000-0  35056-1 0  3252
2 27553  53.0542 217.6275 0006176 351.0572 158.2119 15.06524099    17
